[{"OBJECT_NAME":"VSP RF A1","OBJECT_ID":"2024-043AP","EPOCH":"2026-03-07T00:44:15.345024","MEAN_MOTION":15.26179596,"ECCENTRICITY":0.00094313,"INCLINATION":97.5247,"RA_OF_ASC_NODE":201.5379,"ARG_OF_PERICENTER":234.6315,"MEAN_ANOMALY":125.4042,"EPHEMERIS_TYPE":0,"CLASSIFICATION_TYPE":"U","NORAD_CAT_ID":59135,"ELEMENT_SET_NO":999,"REV_AT_EPOCH":11140,"BSTAR":2.5198753e-5,"MEAN_MOTION_DOT":5.77e-6,"MEAN_MOTION_DDOT":0},{"OBJECT_NAME":"STARLINK-31464","OBJECT_ID":"2024-056Y","EPOCH":"2026-03-07T18:36:53.135136","MEAN_MOTION":15.27583803,"ECCENTRICITY":0.00014224,"INCLINATION":42.9986,"RA_OF_ASC_NODE":241.3384,"ARG_OF_PERICENTER":289.0593,"MEAN_ANOMALY":71.0104,"EPHEMERIS_TYPE":0,"CLASSIFICATION_TYPE":"U","NORAD_CAT_ID":59318,"ELEMENT_SET_NO":999,"REV_AT_EPOCH":11086,"BSTAR":6.3376538e-5,"MEAN_MOTION_DOT":1.482e-5,"MEAN_MOTION_DDOT":0}]
